{
  "links" : {
    "next" : "https://api.nasa.gov/neo/rest/v1/feed?start_date=2015-06-23&end_date=2015-06-23&detailed=true&api_key=t0TVs3DtDT2H8Oy2Zy8m2eVrNsAVKAexjcZXUckd",
    "prev" : "https://api.nasa.gov/neo/rest/v1/feed?start_date=2015-06-21&end_date=2015-06-21&detailed=true&api_key=t0TVs3DtDT2H8Oy2Zy8m2eVrNsAVKAexjcZXUckd",
    "self" : "https://api.nasa.gov/neo/rest/v1/feed?start_date=2015-06-22&end_date=2015-06-22&detailed=true&api_key=t0TVs3DtDT2H8Oy2Zy8m2eVrNsAVKAexjcZXUckd"
  },
  "element_count" : 5,
  "near_earth_objects" : {
    "2015-06-22" : [ {
      "links" : {
        "self" : "https://api.nasa.gov/neo/rest/v1/neo/3723740?api_key=t0TVs3DtDT2H8Oy2Zy8m2eVrNsAVKAexjcZXUckd"
      },
      "neo_reference_id" : "3723740",
      "name" : "(2015 MX103)",
      "nasa_jpl_url" : "http://ssd.jpl.nasa.gov/sbdb.cgi?sstr=3723740",
      "absolute_magnitude_h" : 24.4,
      "estimated_diameter" : {
        "kilometers" : {
          "estimated_diameter_min" : 0.0350392641,
          "estimated_diameter_max" : 0.0783501764
        },
        "meters" : {
          "estimated_diameter_min" : 35.0392641108,
          "estimated_diameter_max" : 78.3501764334
        },
        "miles" : {
          "estimated_diameter_min" : 0.0217723826,
          "estimated_diameter_max" : 0.0486845275
        },
        "feet" : {
          "estimated_diameter_min" : 114.9582192654,
          "estimated_diameter_max" : 257.0543928497
        }
      },
      "is_potentially_hazardous_asteroid" : false,
      "close_approach_data" : [ {
        "close_approach_date" : "2015-06-22",
        "epoch_date_close_approach" : 1434956400000,
        "relative_velocity" : {
          "kilometers_per_second" : "7.03515558",
          "kilometers_per_hour" : "25326.5600878712",
          "miles_per_hour" : "15736.9395168219"
        },
        "miss_distance" : {
          "astronomical" : "0.0293314142",
          "lunar" : "11.4099197388",
          "kilometers" : "4387917",
          "miles" : "2726525.25"
        },
        "orbiting_body" : "Earth"
      } ],
      "orbital_data" : {
        "orbit_id" : "5",
        "orbit_determination_date" : "2017-04-06 08:32:57",
        "orbit_uncertainty" : "7",
        "minimum_orbit_intersection" : ".0101589",
        "jupiter_tisserand_invariant" : "4.337",
        "epoch_osculation" : "2458000.5",
        "eccentricity" : ".3517236656328624",
        "semi_major_axis" : "1.568587488488271",
        "inclination" : "7.385908258888614",
        "ascending_node_longitude" : "265.5816568263917",
        "orbital_period" : "717.5654947469263",
        "perihelion_distance" : "1.016878147171331",
        "perihelion_argument" : "344.4276625914717",
        "aphelion_distance" : "2.120296829805211",
        "perihelion_time" : "2457896.688675215597",
        "mean_anomaly" : "52.08176423751474",
        "mean_motion" : ".5016963644927857",
        "equinox" : "J2000"
      }
    }, {
      "links" : {
        "self" : "https://api.nasa.gov/neo/rest/v1/neo/3762126?api_key=t0TVs3DtDT2H8Oy2Zy8m2eVrNsAVKAexjcZXUckd"
      },
      "neo_reference_id" : "3762126",
      "name" : "(2016 UA42)",
      "nasa_jpl_url" : "http://ssd.jpl.nasa.gov/sbdb.cgi?sstr=3762126",
      "absolute_magnitude_h" : 21.3,
      "estimated_diameter" : {
        "kilometers" : {
          "estimated_diameter_min" : 0.1460679643,
          "estimated_diameter_max" : 0.3266178974
        },
        "meters" : {
          "estimated_diameter_min" : 146.0679642714,
          "estimated_diameter_max" : 326.6178974458
        },
        "miles" : {
          "estimated_diameter_min" : 0.090762397,
          "estimated_diameter_max" : 0.2029508896
        },
        "feet" : {
          "estimated_diameter_min" : 479.2256199,
          "estimated_diameter_max" : 1071.581062656
        }
      },
      "is_potentially_hazardous_asteroid" : false,
      "close_approach_data" : [ {
        "close_approach_date" : "2015-06-22",
        "epoch_date_close_approach" : 1434956400000,
        "relative_velocity" : {
          "kilometers_per_second" : "22.801411687",
          "kilometers_per_hour" : "82085.0820731748",
          "miles_per_hour" : "51004.4778026346"
        },
        "miss_distance" : {
          "astronomical" : "0.4755065001",
          "lunar" : "184.9720306396",
          "kilometers" : "71134760",
          "miles" : "44201092"
        },
        "orbiting_body" : "Earth"
      } ],
      "orbital_data" : {
        "orbit_id" : "11",
        "orbit_determination_date" : "2017-04-06 08:22:41",
        "orbit_uncertainty" : "5",
        "minimum_orbit_intersection" : ".251331",
        "jupiter_tisserand_invariant" : "5.747",
        "epoch_osculation" : "2458000.5",
        "eccentricity" : ".4429835004100397",
        "semi_major_axis" : "1.036003150530261",
        "inclination" : "25.05449099476633",
        "ascending_node_longitude" : "56.58913415303602",
        "orbital_period" : "385.1589916509409",
        "perihelion_distance" : ".5770708484725368",
        "perihelion_argument" : "205.6070162489605",
        "aphelion_distance" : "1.494935452587986",
        "perihelion_time" : "2457964.736051590867",
        "mean_anomaly" : "33.42780957053742",
        "mean_motion" : ".9346789450686332",
        "equinox" : "J2000"
      }
    } ]
  }
}